SL-14 R/B               
1 16792U 86046B   26004.88609901  .00000791  00000+0  88316-4 0  9998
2 16792  82.4830 140.4554 0024526  79.6104 280.7875 14.85516626116932
SL-14 R/B               
1 16882U 86055B   26005.02993666  .00000756  00000+0  84405-4 0  9995
2 16882  82.5198 186.4872 0018902 178.5525 304.7243 14.85559886109911
AJISAI (EGS)            
1 16908U 86061A   26005.21392101 -.00000067  00000+0  21481-3 0  9999
2 16908  50.0101 288.5368 0011314 124.8222  39.6801 12.44514662460095
COSMOS 1812             
1 17295U 87003A   26005.12838279  .00138639  00000+0  69251-3 0  9990
2 17295  82.4862 266.6011 0004540  60.4812 299.6908 15.81427275134342
SL-14 R/B               
1 17567U 87024B   26005.14467094  .00000833  00000+0  92094-4 0  9996
2 17567  82.5289 152.4681 0019599 109.8136 250.5196 14.86056410 78693
COSMOS 1833             
1 17589U 87027A   26005.00796242  .00000355  00000+0  21547-3 0  9991
2 17589  70.9184  99.8661 0023638 299.3935  60.4825 14.13036362  1322
SL-16 R/B               
1 17590U 87027B   26005.16609742  .00000164  00000+0  10491-3 0  9992
2 17590  71.0031  50.3547 0006876 235.0090 125.0389 14.17156712  6342
SL-14 R/B               
1 17912U 87038B   26005.03954719  .00000774  00000+0  87093-4 0  9995
2 17912  82.5014 356.7524 0019810  19.6147 340.5827 14.85289937 69786
COSMOS 1844             
1 17973U 87041A   26004.89817979  .00000099  00000+0  76441-4 0  9990
2 17973  70.8988 168.7257 0028743 120.5470 239.8494 14.14538848994566
SL-14 R/B               
1 18153U 87055B   26005.16208458  .00000650  00000+0  72201-4 0  9996
2 18153  82.4982  48.9117 0019685 220.4592 139.5162 14.85549621 60509
COSMOS 1867             
1 18187U 87060A   26004.72727778  .00000032  00000+0  49631-4 0  9996
2 18187  65.0109 125.8287 0013805 273.4827  86.4679 14.31491148 10783
SL-14 R/B               
1 18749U 88001B   26005.15323468  .00000685  00000+0  76382-4 0  9999
2 18749  82.5126 255.1269 0019630  88.4763 271.8702 14.85452724 32598
