CCSDS_OMM_VERS = 2.0
CREATION_DATE  = 
ORIGINATOR     = 

OBJECT_NAME    = SL-14 R/B
OBJECT_ID      = 1986-046B
CENTER_NAME    = EARTH
REF_FRAME      = TEME
TIME_SYSTEM    = UTC
MEAN_ELEMENT_THEORY = SGP/SGP4

EPOCH          = 2026-01-04T21:15:58.954464
MEAN_MOTION    = 14.85516626
ECCENTRICITY   = .0024526
INCLINATION    = 82.4830
RA_OF_ASC_NODE = 140.4554
ARG_OF_PERICENTER = 79.6104
MEAN_ANOMALY   = 280.7875

EPHEMERIS_TYPE = 0
CLASSIFICATION_TYPE = U
NORAD_CAT_ID   = 16792
ELEMENT_SET_NO = 999
REV_AT_EPOCH   = 11693
BSTAR          = .88316E-4
MEAN_MOTION_DOT = .791E-5
MEAN_MOTION_DDOT = 0

CCSDS_OMM_VERS = 2.0
CREATION_DATE  = 
ORIGINATOR     = 

OBJECT_NAME    = SL-14 R/B
OBJECT_ID      = 1986-055B
CENTER_NAME    = EARTH
REF_FRAME      = TEME
TIME_SYSTEM    = UTC
MEAN_ELEMENT_THEORY = SGP/SGP4

EPOCH          = 2026-01-05T00:43:06.527424
MEAN_MOTION    = 14.85559886
ECCENTRICITY   = .0018902
INCLINATION    = 82.5198
RA_OF_ASC_NODE = 186.4872
ARG_OF_PERICENTER = 178.5525
MEAN_ANOMALY   = 304.7243

EPHEMERIS_TYPE = 0
CLASSIFICATION_TYPE = U
NORAD_CAT_ID   = 16882
ELEMENT_SET_NO = 999
REV_AT_EPOCH   = 10991
BSTAR          = .84405E-4
MEAN_MOTION_DOT = .756E-5
MEAN_MOTION_DDOT = 0

CCSDS_OMM_VERS = 2.0
CREATION_DATE  = 
ORIGINATOR     = 

OBJECT_NAME    = AJISAI (EGS)
OBJECT_ID      = 1986-061A
CENTER_NAME    = EARTH
REF_FRAME      = TEME
TIME_SYSTEM    = UTC
MEAN_ELEMENT_THEORY = SGP/SGP4

EPOCH          = 2026-01-05T05:08:02.775264
MEAN_MOTION    = 12.44514662
ECCENTRICITY   = .0011314
INCLINATION    = 50.0101
RA_OF_ASC_NODE = 288.5368
ARG_OF_PERICENTER = 124.8222
MEAN_ANOMALY   = 39.6801

EPHEMERIS_TYPE = 0
CLASSIFICATION_TYPE = U
NORAD_CAT_ID   = 16908
ELEMENT_SET_NO = 999
REV_AT_EPOCH   = 46009
BSTAR          = .21481E-3
MEAN_MOTION_DOT = -.67E-6
MEAN_MOTION_DDOT = 0

CCSDS_OMM_VERS = 2.0
CREATION_DATE  = 
ORIGINATOR     = 

OBJECT_NAME    = COSMOS 1812
OBJECT_ID      = 1987-003A
CENTER_NAME    = EARTH
REF_FRAME      = TEME
TIME_SYSTEM    = UTC
MEAN_ELEMENT_THEORY = SGP/SGP4

EPOCH          = 2026-01-05T03:04:52.273056
MEAN_MOTION    = 15.81427275
ECCENTRICITY   = .000454
INCLINATION    = 82.4862
RA_OF_ASC_NODE = 266.6011
ARG_OF_PERICENTER = 60.4812
MEAN_ANOMALY   = 299.6908

EPHEMERIS_TYPE = 0
CLASSIFICATION_TYPE = U
NORAD_CAT_ID   = 17295
ELEMENT_SET_NO = 999
REV_AT_EPOCH   = 13434
BSTAR          = .69251E-3
MEAN_MOTION_DOT = .138639E-2
MEAN_MOTION_DDOT = 0

CCSDS_OMM_VERS = 2.0
CREATION_DATE  = 
ORIGINATOR     = 

OBJECT_NAME    = SL-14 R/B
OBJECT_ID      = 1987-024B
CENTER_NAME    = EARTH
REF_FRAME      = TEME
TIME_SYSTEM    = UTC
MEAN_ELEMENT_THEORY = SGP/SGP4

EPOCH          = 2026-01-05T03:28:19.569216
MEAN_MOTION    = 14.86056410
ECCENTRICITY   = .0019599
INCLINATION    = 82.5289
RA_OF_ASC_NODE = 152.4681
ARG_OF_PERICENTER = 109.8136
MEAN_ANOMALY   = 250.5196

EPHEMERIS_TYPE = 0
CLASSIFICATION_TYPE = U
NORAD_CAT_ID   = 17567
ELEMENT_SET_NO = 999
REV_AT_EPOCH   = 7869
BSTAR          = .92094E-4
MEAN_MOTION_DOT = .833E-5
MEAN_MOTION_DDOT = 0

CCSDS_OMM_VERS = 2.0
CREATION_DATE  = 
ORIGINATOR     = 

OBJECT_NAME    = COSMOS 1833
OBJECT_ID      = 1987-027A
CENTER_NAME    = EARTH
REF_FRAME      = TEME
TIME_SYSTEM    = UTC
MEAN_ELEMENT_THEORY = SGP/SGP4

EPOCH          = 2026-01-05T00:11:27.953088
MEAN_MOTION    = 14.13036362
ECCENTRICITY   = .0023638
INCLINATION    = 70.9184
RA_OF_ASC_NODE = 99.8661
ARG_OF_PERICENTER = 299.3935
MEAN_ANOMALY   = 60.4825

EPHEMERIS_TYPE = 0
CLASSIFICATION_TYPE = U
NORAD_CAT_ID   = 17589
ELEMENT_SET_NO = 999
REV_AT_EPOCH   = 132
BSTAR          = .21547E-3
MEAN_MOTION_DOT = .355E-5
MEAN_MOTION_DDOT = 0

CCSDS_OMM_VERS = 2.0
CREATION_DATE  = 
ORIGINATOR     = 

OBJECT_NAME    = SL-16 R/B
OBJECT_ID      = 1987-027B
CENTER_NAME    = EARTH
REF_FRAME      = TEME
TIME_SYSTEM    = UTC
MEAN_ELEMENT_THEORY = SGP/SGP4

EPOCH          = 2026-01-05T03:59:10.817088
MEAN_MOTION    = 14.17156712
ECCENTRICITY   = .0006876
INCLINATION    = 71.0031
RA_OF_ASC_NODE = 50.3547
ARG_OF_PERICENTER = 235.0090
MEAN_ANOMALY   = 125.0389

EPHEMERIS_TYPE = 0
CLASSIFICATION_TYPE = U
NORAD_CAT_ID   = 17590
ELEMENT_SET_NO = 999
REV_AT_EPOCH   = 634
BSTAR          = .10491E-3
MEAN_MOTION_DOT = .164E-5
MEAN_MOTION_DDOT = 0

CCSDS_OMM_VERS = 2.0
CREATION_DATE  = 
ORIGINATOR     = 

OBJECT_NAME    = SL-14 R/B
OBJECT_ID      = 1987-038B
CENTER_NAME    = EARTH
REF_FRAME      = TEME
TIME_SYSTEM    = UTC
MEAN_ELEMENT_THEORY = SGP/SGP4

EPOCH          = 2026-01-05T00:56:56.877216
MEAN_MOTION    = 14.85289937
ECCENTRICITY   = .001981
INCLINATION    = 82.5014
RA_OF_ASC_NODE = 356.7524
ARG_OF_PERICENTER = 19.6147
MEAN_ANOMALY   = 340.5827

EPHEMERIS_TYPE = 0
CLASSIFICATION_TYPE = U
NORAD_CAT_ID   = 17912
ELEMENT_SET_NO = 999
REV_AT_EPOCH   = 6978
BSTAR          = .87093E-4
MEAN_MOTION_DOT = .774E-5
MEAN_MOTION_DDOT = 0

CCSDS_OMM_VERS = 2.0
CREATION_DATE  = 
ORIGINATOR     = 

OBJECT_NAME    = COSMOS 1844
OBJECT_ID      = 1987-041A
CENTER_NAME    = EARTH
REF_FRAME      = TEME
TIME_SYSTEM    = UTC
MEAN_ELEMENT_THEORY = SGP/SGP4

EPOCH          = 2026-01-04T21:33:22.733856
MEAN_MOTION    = 14.14538848
ECCENTRICITY   = .0028743
INCLINATION    = 70.8988
RA_OF_ASC_NODE = 168.7257
ARG_OF_PERICENTER = 120.5470
MEAN_ANOMALY   = 239.8494

EPHEMERIS_TYPE = 0
CLASSIFICATION_TYPE = U
NORAD_CAT_ID   = 17973
ELEMENT_SET_NO = 999
REV_AT_EPOCH   = 99456
BSTAR          = .76441E-4
MEAN_MOTION_DOT = .99E-6
MEAN_MOTION_DDOT = 0

CCSDS_OMM_VERS = 2.0
CREATION_DATE  = 
ORIGINATOR     = 

OBJECT_NAME    = SL-14 R/B
OBJECT_ID      = 1987-055B
CENTER_NAME    = EARTH
REF_FRAME      = TEME
TIME_SYSTEM    = UTC
MEAN_ELEMENT_THEORY = SGP/SGP4

EPOCH          = 2026-01-05T03:53:24.107712
MEAN_MOTION    = 14.85549621
ECCENTRICITY   = .0019685
INCLINATION    = 82.4982
RA_OF_ASC_NODE = 48.9117
ARG_OF_PERICENTER = 220.4592
MEAN_ANOMALY   = 139.5162

EPHEMERIS_TYPE = 0
CLASSIFICATION_TYPE = U
NORAD_CAT_ID   = 18153
ELEMENT_SET_NO = 999
REV_AT_EPOCH   = 6050
BSTAR          = .72201E-4
MEAN_MOTION_DOT = .65E-5
MEAN_MOTION_DDOT = 0

CCSDS_OMM_VERS = 2.0
CREATION_DATE  = 
ORIGINATOR     = 

OBJECT_NAME    = COSMOS 1867
OBJECT_ID      = 1987-060A
CENTER_NAME    = EARTH
REF_FRAME      = TEME
TIME_SYSTEM    = UTC
MEAN_ELEMENT_THEORY = SGP/SGP4

EPOCH          = 2026-01-04T17:27:16.800192
MEAN_MOTION    = 14.31491148
ECCENTRICITY   = .00138053
INCLINATION    = 65.0109
RA_OF_ASC_NODE = 125.8287
ARG_OF_PERICENTER = 273.4827
MEAN_ANOMALY   = 86.4679

EPHEMERIS_TYPE = 0
CLASSIFICATION_TYPE = U
NORAD_CAT_ID   = 18187
ELEMENT_SET_NO = 999
REV_AT_EPOCH   = 1078
BSTAR          = .49630899E-4
MEAN_MOTION_DOT = .32E-6
MEAN_MOTION_DDOT = 0

CCSDS_OMM_VERS = 2.0
CREATION_DATE  = 
ORIGINATOR     = 

OBJECT_NAME    = SL-14 R/B
OBJECT_ID      = 1988-001B
CENTER_NAME    = EARTH
REF_FRAME      = TEME
TIME_SYSTEM    = UTC
MEAN_ELEMENT_THEORY = SGP/SGP4

EPOCH          = 2026-01-05T03:40:39.476352
MEAN_MOTION    = 14.85452724
ECCENTRICITY   = .001963
INCLINATION    = 82.5126
RA_OF_ASC_NODE = 255.1269
ARG_OF_PERICENTER = 88.4763
MEAN_ANOMALY   = 271.8702

EPHEMERIS_TYPE = 0
CLASSIFICATION_TYPE = U
NORAD_CAT_ID   = 18749
ELEMENT_SET_NO = 999
REV_AT_EPOCH   = 3259
BSTAR          = .76382E-4
MEAN_MOTION_DOT = .685E-5
MEAN_MOTION_DDOT = 0

